{"fetched_at":"2026-03-29T16:36:15Z","count":15609,"tles":[{"name":"STARLINK-5161","line1":"1 54163U 22141G   26087.82268559 -.00002511  00000+0 -13984-3 0  9995","line2":"2 54163  53.2175 278.3978 0001261  91.9565 268.1572 15.08814403188746","category":"Starlink"}]}