{
  "norad_id": 54163,
  "name": "STARLINK-5161",
  "history": [
    {
      "epoch": "2026-03-28T19:44:40.034976",
      "apogee_km": 540.6943995197207,
      "perigee_km": 538.9488601982348,
      "latitude_deg": 51.313386961839846,
      "longitude_deg": 35.2778166399803,
      "semi_major_axis_km": 6917.9586298589775,
      "eccentricity": 0.00012616,
      "inclination_deg": 53.2175,
      "raan_deg": 278.3978,
      "arg_perigee_deg": 91.9565,
      "mean_anomaly_deg": 268.1572,
      "mean_motion_rev_day": 15.08814403
    }
  ]
}